HXMT (HUIYAN)           
1 42758U 17034A   26114.25254041  .00002345  00000+0  12372-3 0  9999
2 42758  43.0132 123.2473 0031191 165.5823 194.5922 15.17978734489463
SAOCOM 1A               
1 43641U 18076A   26114.26263296 -.00000134  00000+0 -10257-4 0  9998
2 43641  97.8904 301.7907 0001520  88.5171 271.6216 14.82149981408118
H-2A R/B                
1 43682U 18084L   26114.27721548  .00015095  00000+0  33984-3 0  9993
2 43682  98.8662 341.4642 0023339 222.1724 137.7725 15.43146446412803
SAOCOM 1B               
1 46265U 20059A   26114.29382211  .00000238  00000+0  36512-4 0  9994
2 46265  97.8898 300.9156 0001614  82.5514 277.5882 14.82141729305506
CSS (TIANHE)            
1 48274U 21035A   26113.54209464  .00023003  00000+0  25056-3 0  9991
2 48274  41.4673 294.8032 0006745 259.8887 100.1192 15.62838201284621
COSMOS 2550             
1 48865U 21056A   26114.29304530  .00004268  00000+0  13545-3 0  9995
2 48865  67.1427 262.9325 0008336 270.1602  89.8597 15.33834350270456
CZ-2C R/B               
1 52794U 22058K   26114.04529573  .00034836  00000+0  45125-3 0  9996
2 52794  50.1866  84.3691 0039141  35.0181 325.3353 15.57579590217199
CZ-2C R/B               
1 54039U 22132E   26113.99022162  .00035916  00000+0  35090-3 0  9998
2 54039  97.2946 118.8312 0012886 280.4213  79.5595 15.65992870197457
GSLV R/B                
1 54149U 22138AN  26114.17827747  .00001949  00000+0  16623-3 0  9999
2 54149  87.3817 151.1213 0020836 353.5688   6.5273 14.97018431190731
XRISM                   
1 57800U 23137A   26114.06629991  .00003906  00000+0  21647-3 0  9992
2 57800  31.0033 350.0477 0007503 137.7043 222.4175 15.11981271144668
ACS3                    
1 59588U 24077B   26112.74691476  .00004794  00000+0  37433-2 0  9996
2 59588  97.1850  43.9630 0066905 350.3018   9.6851 13.91470077100322
HTV-X1                  
1 66174U 25241A   26112.99220554  .00004413  00000+0  14900-3 0  9994
2 66174  51.6353 219.4042 0007821 344.1053  15.9682 15.32728944 27734
SZ-21 MODULE            
1 66515U 25246C   26114.16253347  .00034762  00000+0  25886-3 0  9990
2 66515  41.4730 282.6783 0004153 317.8890  42.1633 15.72046664 25220
